[{"OBJECT_NAME":"IRIS-F2","OBJECT_ID":"2025-009CD","EPOCH":"2026-03-09T16:59:24.417600","MEAN_MOTION":15.24984435,"ECCENTRICITY":0.00049485,"INCLINATION":97.3936,"RA_OF_ASC_NODE":149.6497,"ARG_OF_PERICENTER":359.0166,"MEAN_ANOMALY":1.1061,"EPHEMERIS_TYPE":0,"CLASSIFICATION_TYPE":"U","NORAD_CAT_ID":62684,"ELEMENT_SET_NO":999,"REV_AT_EPOCH":12129,"BSTAR":0.00032095462,"MEAN_MOTION_DOT":7.938e-5,"MEAN_MOTION_DDOT":0},{"OBJECT_NAME":"STARLINK-35685","OBJECT_ID":"2025-299AC","EPOCH":"2026-03-09T22:00:01.999584","MEAN_MOTION":15.36668663,"ECCENTRICITY":0.00013152,"INCLINATION":43.0009,"RA_OF_ASC_NODE":167.5493,"ARG_OF_PERICENTER":263.612,"MEAN_ANOMALY":69.38,"EPHEMERIS_TYPE":0,"CLASSIFICATION_TYPE":"U","NORAD_CAT_ID":67128,"ELEMENT_SET_NO":999,"REV_AT_EPOCH":589,"BSTAR":-0.062393317,"MEAN_MOTION_DOT":-0.02027844,"MEAN_MOTION_DDOT":0}]
